start=new Date('2022-09-18T00:00:00.000Z').valueOf();
sats=[{"EPOCH":"2022-09-17T17:58:27.760224","INCLINATION":"53.0536","MEAN_ANOMALY":"289.8338","RCS_SIZE":"LARGE","COUNTRY_CODE":"US","PERIAPSIS":"546.175","DECAY_DATE":null,"SITE":"AFETR","TLE_LINE2":"2 48393  53.0536 278.1182 0001536  70.2817 289.8338 15.06391837 77266","GP_ID":"212869499","MEAN_MOTION":"15.06391837","LAUNCH_DATE":"2021-05-04","MEAN_MOTION_DDOT":"0.0000000000000","REV_AT_EPOCH":"7726","CLASSIFICATION_TYPE":"U","SEMIMAJOR_AXIS":"6925.374","APOAPSIS":"548.302","PERIOD":"95.593","EPHEMERIS_TYPE":"0","TIME_SYSTEM":"UTC","FILE":"3576621","MEAN_ELEMENT_THEORY":"SGP4","OBJECT_TYPE":"PAYLOAD","ELEMENT_SET_NO":"999","BSTAR":"0.00005541300000","RA_OF_ASC_NODE":"278.1182","NORAD_CAT_ID":"48393","CENTER_NAME":"EARTH","OBJECT_NAME":"STARLINK-2602","ARG_OF_PERICENTER":"70.2817","MEAN_MOTION_DOT":"0.00000544","REF_FRAME":"TEME","TLE_LINE1":"1 48393U 21038AS  22260.74893241  .00000544  00000-0  55413-4 0  9996","OBJECT_ID":"2021-038AS","ECCENTRICITY":"0.00015360"},{"ARG_OF_PERICENTER":"69.7510","OBJECT_NAME":"STARLINK-2573","MEAN_MOTION_DOT":"-0.00000591","TLE_LINE1":"1 48394U 21038AT  22260.41351919 -.00000591  00000-0 -20765-4 0  9998","REF_FRAME":"TEME","OBJECT_ID":"2021-038AT","ECCENTRICITY":"0.00014250","PERIOD":"95.593","EPHEMERIS_TYPE":"0","MEAN_ELEMENT_THEORY":"SGP4","FILE":"3576375","TIME_SYSTEM":"UTC","OBJECT_TYPE":"PAYLOAD","ELEMENT_SET_NO":"999","BSTAR":"-0.00002076500000","RA_OF_ASC_NODE":"279.6347","CENTER_NAME":"EARTH","NORAD_CAT_ID":"48394","GP_ID":"212812768","MEAN_MOTION":"15.06390785","LAUNCH_DATE":"2021-05-04","MEAN_MOTION_DDOT":"0.0000000000000","REV_AT_EPOCH":"7721","SEMIMAJOR_AXIS":"6925.377","CLASSIFICATION_TYPE":"U","APOAPSIS":"548.229","EPOCH":"2022-09-17T09:55:28.058016","INCLINATION":"53.0525","MEAN_ANOMALY":"290.3632","RCS_SIZE":"LARGE","COUNTRY_CODE":"US","SITE":"AFETR","DECAY_DATE":null,"PERIAPSIS":"546.255","TLE_LINE2":"2 48394  53.0525 279.6347 0001425  69.7510 290.3632 15.06390785 77214"},{"MEAN_MOTION_DOT":"-0.00000923","OBJECT_NAME":"STARLINK-2574","ARG_OF_PERICENTER":"97.7262","OBJECT_ID":"2021-038AU","TLE_LINE1":"1 48395U 21038AU  22260.32512884 -.00000923  00000-0 -43127-4 0  9995","REF_FRAME":"TEME","ECCENTRICITY":"0.00010730","EPHEMERIS_TYPE":"0","PERIOD":"95.593","MEAN_ELEMENT_THEORY":"SGP4","FILE":"3576375","TIME_SYSTEM":"UTC","BSTAR":"-0.00004312700000","ELEMENT_SET_NO":"999","OBJECT_TYPE":"PAYLOAD","CENTER_NAME":"EARTH","NORAD_CAT_ID":"48395","RA_OF_ASC_NODE":"280.6544","MEAN_MOTION":"15.06394168","GP_ID":"212811528","LAUNCH_DATE":"2021-05-04","REV_AT_EPOCH":"7719","MEAN_MOTION_DDOT":"0.0000000000000","SEMIMAJOR_AXIS":"6925.366","CLASSIFICATION_TYPE":"U","APOAPSIS":"547.975","INCLINATION":"53.0523","MEAN_ANOMALY":"262.3849","EPOCH":"2022-09-17T07:48:11.131776","RCS_SIZE":"LARGE","SITE":"AFETR","DECAY_DATE":null,"PERIAPSIS":"546.488","COUNTRY_CODE":"US","TLE_LINE2":"2 48395  53.0523 280.6544 0001073  97.7262 262.3849 15.06394168 77193"},{"EPOCH":"2022-09-17T17:47:50.369280","INCLINATION":"53.0529","MEAN_ANOMALY":"293.4233","RCS_SIZE":"LARGE","COUNTRY_CODE":"US","PERIAPSIS":"546.026","DECAY_DATE":null,"SITE":"AFETR","TLE_LINE2":"2 48396  53.0529 278.1640 0001719  66.6937 293.4233 15.06399109 77260","GP_ID":"212869251","MEAN_MOTION":"15.06399109","MEAN_MOTION_DDOT":"0.0000000000000","LAUNCH_DATE":"2021-05-04","REV_AT_EPOCH":"7726","CLASSIFICATION_TYPE":"U","SEMIMAJOR_AXIS":"6925.351","APOAPSIS":"548.407","PERIOD":"95.592","EPHEMERIS_TYPE":"0","TIME_SYSTEM":"UTC","FILE":"3576621","MEAN_ELEMENT_THEORY":"SGP4","OBJECT_TYPE":"PAYLOAD","ELEMENT_SET_NO":"999","BSTAR":"0.00001226200000","RA_OF_ASC_NODE":"278.1640","NORAD_CAT_ID":"48396","CENTER_NAME":"EARTH","ARG_OF_PERICENTER":"66.6937","OBJECT_NAME":"STARLINK-2575","MEAN_MOTION_DOT":"-0.00000099","REF_FRAME":"TEME","TLE_LINE1":"1 48396U 21038AV  22260.74155520 -.00000099  00000-0  12262-4 0  9991","OBJECT_ID":"2021-038AV","ECCENTRICITY":"0.00017190"},{"MEAN_MOTION_DOT":"0.00008192","OBJECT_NAME":"STARLINK-2590","ARG_OF_PERICENTER":"85.0048","OBJECT_ID":"2021-038AW","TLE_LINE1":"1 48397U 21038AW  22260.87056802  .00008192  00000-0  56801-3 0  9996","REF_FRAME":"TEME","ECCENTRICITY":"0.00013370","EPHEMERIS_TYPE":"0","PERIOD":"95.591","FILE":"3576621","MEAN_ELEMENT_THEORY":"SGP4","TIME_SYSTEM":"UTC","BSTAR":"0.00056801000000","ELEMENT_SET_NO":"999","OBJECT_TYPE":"PAYLOAD","CENTER_NAME":"EARTH","NORAD_CAT_ID":"48397","RA_OF_ASC_NODE":"277.5814","MEAN_MOTION":"15.06410888","GP_ID":"212870000","REV_AT_EPOCH":"7728","LAUNCH_DATE":"2021-05-04","MEAN_MOTION_DDOT":"0.0000000000000","SEMIMAJOR_AXIS":"6925.315","CLASSIFICATION_TYPE":"U","APOAPSIS":"548.106","MEAN_ANOMALY":"275.1094","INCLINATION":"53.0527","EPOCH":"2022-09-17T20:53:37.076928","RCS_SIZE":"LARGE","SITE":"AFETR","DECAY_DATE":null,"PERIAPSIS":"546.254","COUNTRY_CODE":"US","TLE_LINE2":"2 48397  53.0527 277.5814 0001337  85.0048 275.1094 15.06410888 77281"},{"GP_ID":"212869723","MEAN_MOTION":"15.06399654","LAUNCH_DATE":"2021-05-04","REV_AT_EPOCH":"7723","MEAN_MOTION_DDOT":"0.0000000000000","SEMIMAJOR_AXIS":"6925.350","CLASSIFICATION_TYPE":"U","APOAPSIS":"548.122","EPOCH":"2022-09-17T12:50:36.637728","INCLINATION":"53.0549","MEAN_ANOMALY":"288.5885","RCS_SIZE":"LARGE","COUNTRY_CODE":"US","DECAY_DATE":null,"SITE":"AFETR","PERIAPSIS":"546.307","TLE_LINE2":"2 48398  53.0549 279.0782 0001310  71.5246 288.5885 15.06399654 77236","OBJECT_NAME":"STARLINK-2588","ARG_OF_PERICENTER":"71.5246","MEAN_MOTION_DOT":"0.00001182","TLE_LINE1":"1 48398U 21038AX  22260.53514627  .00001182  00000-0  98198-4 0  9992","REF_FRAME":"TEME","OBJECT_ID":"2021-038AX","ECCENTRICITY":"0.00013100","PERIOD":"95.592","EPHEMERIS_TYPE":"0","MEAN_ELEMENT_THEORY":"SGP4","FILE":"3576621","TIME_SYSTEM":"UTC","OBJECT_TYPE":"PAYLOAD","ELEMENT_SET_NO":"999","BSTAR":"0.00009819800000","RA_OF_ASC_NODE":"279.0782","CENTER_NAME":"EARTH","NORAD_CAT_ID":"48398"},{"TIME_SYSTEM":"UTC","FILE":"3576621","MEAN_ELEMENT_THEORY":"SGP4","EPHEMERIS_TYPE":"0","PERIOD":"95.592","NORAD_CAT_ID":"48399","CENTER_NAME":"EARTH","RA_OF_ASC_NODE":"279.0933","BSTAR":"0.00006024600000","ELEMENT_SET_NO":"999","OBJECT_TYPE":"PAYLOAD","MEAN_MOTION_DOT":"0.00000616","OBJECT_NAME":"STARLINK-2587","ARG_OF_PERICENTER":"76.6310","ECCENTRICITY":"0.00014720","OBJECT_ID":"2021-038AY","REF_FRAME":"TEME","TLE_LINE1":"1 48399U 21038AY  22260.53145861  .00000616  00000-0  60246-4 0  9997","RCS_SIZE":"LARGE","INCLINATION":"53.0537","MEAN_ANOMALY":"283.4843","EPOCH":"2022-09-17T12:45:18.023904","TLE_LINE2":"2 48399  53.0537 279.0933 0001472  76.6310 283.4843 15.06395799 77222","PERIAPSIS":"546.207","SITE":"AFETR","DECAY_DATE":null,"COUNTRY_CODE":"US","MEAN_MOTION_DDOT":"0.0000000000000","LAUNCH_DATE":"2021-05-04","REV_AT_EPOCH":"7722","MEAN_MOTION":"15.06395799","GP_ID":"212868501","APOAPSIS":"548.246","CLASSIFICATION_TYPE":"U","SEMIMAJOR_AXIS":"6925.361"},{"ECCENTRICITY":"0.00017820","REF_FRAME":"TEME","TLE_LINE1":"1 48400U 21038AZ  22260.32873321 -.00000316  00000-0 -23243-5 0  9992","OBJECT_ID":"2021-038AZ","ARG_OF_PERICENTER":"13.8508","OBJECT_NAME":"STARLINK-2576","MEAN_MOTION_DOT":"-0.00000316","RA_OF_ASC_NODE":"280.0177","NORAD_CAT_ID":"48400","CENTER_NAME":"EARTH","OBJECT_TYPE":"PAYLOAD","ELEMENT_SET_NO":"999","BSTAR":"-0.00000232430000","TIME_SYSTEM":"UTC","FILE":"3576375","MEAN_ELEMENT_THEORY":"SGP4","PERIOD":"95.592","EPHEMERIS_TYPE":"0","APOAPSIS":"548.455","CLASSIFICATION_TYPE":"U","SEMIMAJOR_AXIS":"6925.356","MEAN_MOTION_DDOT":"0.0000000000000","LAUNCH_DATE":"2021-05-04","REV_AT_EPOCH":"7598","GP_ID":"212811779","MEAN_MOTION":"15.06397578","TLE_LINE2":"2 48400  53.0530 280.0177 0001782  13.8508 346.2529 15.06397578 75983","COUNTRY_CODE":"US","PERIAPSIS":"545.987","SITE":"AFETR","DECAY_DATE":null,"RCS_SIZE":"LARGE","EPOCH":"2022-09-17T07:53:22.549344","INCLINATION":"53.0530","MEAN_ANOMALY":"346.2529"},{"RA_OF_ASC_NODE":"279.8553","CENTER_NAME":"EARTH","NORAD_CAT_ID":"48401","OBJECT_TYPE":"PAYLOAD","ELEMENT_SET_NO":"999","BSTAR":"0.00010451000000","FILE":"3576375","MEAN_ELEMENT_THEORY":"SGP4","TIME_SYSTEM":"UTC","PERIOD":"95.592","EPHEMERIS_TYPE":"0","ECCENTRICITY":"0.00015100","TLE_LINE1":"1 48401U 21038BA  22260.36560149  .00001275  00000-0  10451-3 0  9996","REF_FRAME":"TEME","OBJECT_ID":"2021-038BA","ARG_OF_PERICENTER":"67.1010","OBJECT_NAME":"STARLINK-2571","MEAN_MOTION_DOT":"0.00001275","TLE_LINE2":"2 48401  53.0548 279.8553 0001510  67.1010 293.0138 15.06396979 75985","COUNTRY_CODE":"US","SITE":"AFETR","DECAY_DATE":null,"PERIAPSIS":"546.177","RCS_SIZE":"LARGE","EPOCH":"2022-09-17T08:46:27.968736","INCLINATION":"53.0548","MEAN_ANOMALY":"293.0138","APOAPSIS":"548.269","SEMIMAJOR_AXIS":"6925.358","CLASSIFICATION_TYPE":"U","LAUNCH_DATE":"2021-05-04","MEAN_MOTION_DDOT":"0.0000000000000","REV_AT_EPOCH":"7598","GP_ID":"212812526","MEAN_MOTION":"15.06396979"},{"REF_FRAME":"TEME","TLE_LINE1":"1 48402U 21038BB  22260.78854074  .00000894  00000-0  78944-4 0  9994","OBJECT_ID":"2021-038BB","ECCENTRICITY":"0.00014570","OBJECT_NAME":"STARLINK-2560","ARG_OF_PERICENTER":"65.2982","MEAN_MOTION_DOT":"0.00000894","OBJECT_TYPE":"PAYLOAD","BSTAR":"0.00007894400000","ELEMENT_SET_NO":"999","RA_OF_ASC_NODE":"277.9380","NORAD_CAT_ID":"48402","CENTER_NAME":"EARTH","PERIOD":"95.593","EPHEMERIS_TYPE":"0","TIME_SYSTEM":"UTC","MEAN_ELEMENT_THEORY":"SGP4","FILE":"3576621","CLASSIFICATION_TYPE":"U","SEMIMAJOR_AXIS":"6925.396","APOAPSIS":"548.270","GP_ID":"212870224","MEAN_MOTION":"15.06384564","MEAN_MOTION_DDOT":"0.0000000000000","LAUNCH_DATE":"2021-05-04","REV_AT_EPOCH":"7605","COUNTRY_CODE":"US","PERIAPSIS":"546.252","DECAY_DATE":null,"SITE":"AFETR","TLE_LINE2":"2 48402  53.0556 277.9380 0001457  65.2982 294.8159 15.06384564 76057","EPOCH":"2022-09-17T18:55:29.919936","INCLINATION":"53.0556","MEAN_ANOMALY":"294.8159","RCS_SIZE":"LARGE"}];
